[{"OBJECT_NAME":"LEMUR-2-VALHALLA","OBJECT_ID":"2024-022B","EPOCH":"2026-03-09T12:58:09.060096","MEAN_MOTION":15.36522305,"ECCENTRICITY":0.00112289,"INCLINATION":97.4228,"RA_OF_ASC_NODE":277.4862,"ARG_OF_PERICENTER":109.8773,"MEAN_ANOMALY":250.3682,"EPHEMERIS_TYPE":0,"CLASSIFICATION_TYPE":"U","NORAD_CAT_ID":58900,"ELEMENT_SET_NO":999,"REV_AT_EPOCH":11695,"BSTAR":0.00053647225,"MEAN_MOTION_DOT":0.00019103,"MEAN_MOTION_DDOT":0},{"OBJECT_NAME":"BANDWAGON-2 OBJECT AC","OBJECT_ID":"2024-247AC","EPOCH":"2026-03-09T11:57:27.837504","MEAN_MOTION":15.35059671,"ECCENTRICITY":0.0004253,"INCLINATION":45.0036,"RA_OF_ASC_NODE":108.1066,"ARG_OF_PERICENTER":352.6172,"MEAN_ANOMALY":7.4651,"EPHEMERIS_TYPE":0,"CLASSIFICATION_TYPE":"U","NORAD_CAT_ID":62403,"ELEMENT_SET_NO":999,"REV_AT_EPOCH":6782,"BSTAR":0.00062485362,"MEAN_MOTION_DOT":0.00021432,"MEAN_MOTION_DDOT":0}]
