LEMUR-2-VALHALLA        
1 58900U 24022B   26068.54038264  .00019103  00000+0  53647-3 0  9997
2 58900  97.4228 277.4862 0011228 109.8773 250.3682 15.36522305116951
BANDWAGON-2 OBJECT AC   
1 62403U 24247AC  26068.49823886  .00021432  00000+0  62485-3 0  9993
2 62403  45.0036 108.1066 0004253 352.6172   7.4651 15.35059671 67825
